{
  "type": "FeatureCollection",
  "features": [
    {
      "type": "Feature",
      "properties": {
        "norad_id": 37867,
        "name": "COSMOS 2476 (744)",
        "group": "glo-ops",
        "lat": 24.30020477906692,
        "lon": -112.98862606502828,
        "alt_km": 19117.142941591937,
        "timestamp": "2025-12-16T03:53:27.316376+00:00",
        "meta_object_name": "COSMOS 2476 (744)",
        "meta_object_id": "2011-064A",
        "meta_epoch": "2025-12-10T19:30:14.482368",
        "meta_mean_motion": 2.13101258,
        "meta_eccentricity": 0.00238922,
        "meta_inclination": 65.1614,
        "meta_ra_of_asc_node": 79.2364,
        "meta_arg_of_pericenter": 233.6597,
        "meta_mean_anomaly": 135.7131,
        "meta_ephemeris_type": 0,
        "meta_classification_type": "U",
        "meta_norad_cat_id": 37867,
        "meta_element_set_no": 999,
        "meta_rev_at_epoch": 10975,
        "meta_bstar": 0,
        "meta_mean_motion_dot": -2.4e-07,
        "meta_mean_motion_ddot": 0,
        "tle_line1": "1 37867U 11064A   25344.81266762 -.00000024  00000+0  00000+0 0  9994",
        "tle_line2": "2 37867  65.1614  79.2364 0023892 233.6597 135.7131  2.13101258109752"
      },
      "geometry": {
        "type": "Point",
        "coordinates": [
          -112.98862606502828,
          24.30020477906692
        ]
      }
    },
    {
      "type": "Feature",
      "properties": {
        "norad_id": 37868,
        "name": "COSMOS 2477 (745)",
        "group": "glo-ops",
        "lat": -23.049439287298604,
        "lon": 67.79675650671206,
        "alt_km": 19142.41313415343,
        "timestamp": "2025-12-16T03:53:27.316388+00:00",
        "meta_object_name": "COSMOS 2477 (745)",
        "meta_object_id": "2011-064B",
        "meta_epoch": "2025-12-15T06:06:12.573216",
        "meta_mean_motion": 2.1310289,
        "meta_eccentricity": 0.00211455,
        "meta_inclination": 65.1707,
        "meta_ra_of_asc_node": 79.1637,
        "meta_arg_of_pericenter": 234.5873,
        "meta_mean_anomaly": 123.1925,
        "meta_ephemeris_type": 0,
        "meta_classification_type": "U",
        "meta_norad_cat_id": 37868,
        "meta_element_set_no": 999,
        "meta_rev_at_epoch": 10983,
        "meta_bstar": 0,
        "meta_mean_motion_dot": -5.6e-07,
        "meta_mean_motion_ddot": 0,
        "tle_line1": "1 37868U 11064B   25349.25431219 -.00000056  00000+0  00000+0 0  9994",
        "tle_line2": "2 37868  65.1707  79.1637 0021145 234.5873 123.1925  2.13102890109838"
      },
      "geometry": {
        "type": "Point",
        "coordinates": [
          67.79675650671206,
          -23.049439287298604
        ]
      }
    },
    {
      "type": "Feature",
      "properties": {
        "norad_id": 37869,
        "name": "COSMOS 2475 (743)",
        "group": "glo-ops",
        "lat": -58.32997657805181,
        "lon": 30.65222997522356,
        "alt_km": 19085.9713413359,
        "timestamp": "2025-12-16T03:53:27.316399+00:00",
        "meta_object_name": "COSMOS 2475 (743)",
        "meta_object_id": "2011-064C",
        "meta_epoch": "2025-12-15T07:18:38.805120",
        "meta_mean_motion": 2.13101556,
        "meta_eccentricity": 0.00263599,
        "meta_inclination": 65.1776,
        "meta_ra_of_asc_node": 79.182,
        "meta_arg_of_pericenter": 248.7523,
        "meta_mean_anomaly": 103.5515,
        "meta_ephemeris_type": 0,
        "meta_classification_type": "U",
        "meta_norad_cat_id": 37869,
        "meta_element_set_no": 999,
        "meta_rev_at_epoch": 10984,
        "meta_bstar": 0,
        "meta_mean_motion_dot": -5.6e-07,
        "meta_mean_motion_ddot": 0,
        "tle_line1": "1 37869U 11064C   25349.30461580 -.00000056  00000+0  00000+0 0  9995",
        "tle_line2": "2 37869  65.1776  79.1820 0026359 248.7523 103.5515  2.13101556109846"
      },
      "geometry": {
        "type": "Point",
        "coordinates": [
          30.65222997522356,
          -58.32997657805181
        ]
      }
    },
    {
      "type": "Feature",
      "properties": {
        "norad_id": 39155,
        "name": "COSMOS 2485 (747)",
        "group": "glo-ops",
        "lat": -19.47710530821837,
        "lon": -90.89655186764004,
        "alt_km": 19077.28195292008,
        "timestamp": "2025-12-16T03:53:27.316411+00:00",
        "meta_object_name": "COSMOS 2485 (747)",
        "meta_object_id": "2013-019A",
        "meta_epoch": "2025-12-13T13:15:58.678272",
        "meta_mean_motion": 2.13102947,
        "meta_eccentricity": 0.00246467,
        "meta_inclination": 65.3142,
        "meta_ra_of_asc_node": 79.8396,
        "meta_arg_of_pericenter": 229.7128,
        "meta_mean_anomaly": 130.0848,
        "meta_ephemeris_type": 0,
        "meta_classification_type": "U",
        "meta_norad_cat_id": 39155,
        "meta_element_set_no": 999,
        "meta_rev_at_epoch": 9832,
        "meta_bstar": 0,
        "meta_mean_motion_dot": -4.8e-07,
        "meta_mean_motion_ddot": 0,
        "tle_line1": "1 39155U 13019A   25347.55276248 -.00000048  00000+0  00000+0 0  9998",
        "tle_line2": "2 39155  65.3142  79.8396 0024646 229.7128 130.0848  2.13102947 98326"
      },
      "geometry": {
        "type": "Point",
        "coordinates": [
          -90.89655186764004,
          -19.47710530821837
        ]
      }
    },
    {
      "type": "Feature",
      "properties": {
        "norad_id": 39620,
        "name": "COSMOS 2492 (754)",
        "group": "glo-ops",
        "lat": -46.82346662712058,
        "lon": 169.3541843184268,
        "alt_km": 19127.911123469727,
        "timestamp": "2025-12-16T03:53:27.316422+00:00",
        "meta_object_name": "COSMOS 2492 (754)",
        "meta_object_id": "2014-012A",
        "meta_epoch": "2025-12-12T02:29:11.116896",
        "meta_mean_motion": 2.1310296,
        "meta_eccentricity": 0.00141989,
        "meta_inclination": 65.408,
        "meta_ra_of_asc_node": 320.2923,
        "meta_arg_of_pericenter": 311.6032,
        "meta_mean_anomaly": 48.2746,
        "meta_ephemeris_type": 0,
        "meta_classification_type": "U",
        "meta_norad_cat_id": 39620,
        "meta_element_set_no": 999,
        "meta_rev_at_epoch": 9125,
        "meta_bstar": 0,
        "meta_mean_motion_dot": -5.5e-07,
        "meta_mean_motion_ddot": 0,
        "tle_line1": "1 39620U 14012A   25346.10360089 -.00000055  00000+0  00000+0 0  9994",
        "tle_line2": "2 39620  65.4080 320.2923 0014198 311.6032  48.2746  2.13102960 91257"
      },
      "geometry": {
        "type": "Point",
        "coordinates": [
          169.3541843184268,
          -46.82346662712058
        ]
      }
    },
    {
      "type": "Feature",
      "properties": {
        "norad_id": 40001,
        "name": "COSMOS 2500 (755)",
        "group": "glo-ops",
        "lat": 62.980742442194895,
        "lon": 75.65895067882046,
        "alt_km": 19132.45803043319,
        "timestamp": "2025-12-16T03:53:27.316434+00:00",
        "meta_object_name": "COSMOS 2500 (755)",
        "meta_object_id": "2014-032A",
        "meta_epoch": "2025-12-13T05:08:36.801312",
        "meta_mean_motion": 2.13105905,
        "meta_eccentricity": 0.00081883,
        "meta_inclination": 65.3428,
        "meta_ra_of_asc_node": 320.0161,
        "meta_arg_of_pericenter": 218.9765,
        "meta_mean_anomaly": 140.9635,
        "meta_ephemeris_type": 0,
        "meta_classification_type": "U",
        "meta_norad_cat_id": 40001,
        "meta_element_set_no": 999,
        "meta_rev_at_epoch": 8949,
        "meta_bstar": 0,
        "meta_mean_motion_dot": -6e-07,
        "meta_mean_motion_ddot": 0,
        "tle_line1": "1 40001U 14032A   25347.21431483 -.00000060  00000+0  00000+0 0  9997",
        "tle_line2": "2 40001  65.3428 320.0161 0008188 218.9765 140.9635  2.13105905 89495"
      },
      "geometry": {
        "type": "Point",
        "coordinates": [
          75.65895067882046,
          62.980742442194895
        ]
      }
    },
    {
      "type": "Feature",
      "properties": {
        "norad_id": 40315,
        "name": "COSMOS 2501 (702K)",
        "group": "glo-ops",
        "lat": -62.57832835653465,
        "lon": 89.83274977858,
        "alt_km": 19109.09472818125,
        "timestamp": "2025-12-16T03:53:27.316446+00:00",
        "meta_object_name": "COSMOS 2501 (702K)",
        "meta_object_id": "2014-075A",
        "meta_epoch": "2025-12-14T09:54:07.365600",
        "meta_mean_motion": 2.13101427,
        "meta_eccentricity": 0.00201134,
        "meta_inclination": 63.6139,
        "meta_ra_of_asc_node": 196.7672,
        "meta_arg_of_pericenter": 204.2903,
        "meta_mean_anomaly": 155.6894,
        "meta_ephemeris_type": 0,
        "meta_classification_type": "U",
        "meta_norad_cat_id": 40315,
        "meta_element_set_no": 999,
        "meta_rev_at_epoch": 8591,
        "meta_bstar": 0,
        "meta_mean_motion_dot": 9.7e-07,
        "meta_mean_motion_ddot": 0,
        "tle_line1": "1 40315U 14075A   25348.41258525  .00000097  00000+0  00000+0 0  9998",
        "tle_line2": "2 40315  63.6139 196.7672 0020113 204.2903 155.6894  2.13101427 85910"
      },
      "geometry": {
        "type": "Point",
        "coordinates": [
          89.83274977858,
          -62.57832835653465
        ]
      }
    }
  ]
}